OBJECT_NAME,OBJECT_ID,EPOCH,MEAN_MOTION,ECCENTRICITY,INCLINATION,RA_OF_ASC_NODE,ARG_OF_PERICENTER,MEAN_ANOMALY,EPHEMERIS_TYPE,CLASSIFICATION_TYPE,NORAD_CAT_ID,ELEMENT_SET_NO,REV_AT_EPOCH,BSTAR,MEAN_MOTION_DOT,MEAN_MOTION_DDOT
STARLINK-33539,2025-063P,2026-06-19T19:35:09.413952,15.30212707,.00010792,53.1599,308.1511,86.3570,273.7554,0,U,63376,999,7020,.93009138E-3,.27299E-3,0
STARLINK-33634,2025-063Q,2026-06-19T15:46:09.410304,15.30195513,.00012932,53.1601,298.6567,98.4195,261.6952,0,U,63377,999,7037,.46320016E-3,.13382E-3,0
STARLINK-33640,2025-063R,2026-06-19T17:27:48.417408,15.30207899,.00012404,53.1601,298.3809,87.5754,272.5389,0,U,63378,999,7038,.79512551E-3,.2327E-3,0
STARLINK-33636,2025-063S,2026-06-19T15:10:27.296832,15.38384263,.00023616,53.1605,297.0933,32.6698,327.4453,0,U,63379,999,7034,.79238583E-3,.30165E-3,0
STARLINK-33653,2025-063T,2026-06-19T17:42:59.981472,15.30214643,.00009827,53.1606,298.4502,93.5034,266.6079,0,U,63380,999,7033,.61353093E-3,.17864E-3,0
STARLINK-33643,2025-063U,2026-06-19T17:35:24.281952,15.30202645,.00012832,53.1603,298.4126,97.0137,263.1010,0,U,63381,999,7038,.49453793E-3,.14317E-3,0
STARLINK-33748,2025-063W,2026-06-19T19:20:09.135456,15.30190909,.00015315,53.1605,308.8109,55.0404,305.0740,0,U,63383,999,7024,.49039262E-3,.14189E-3,0
STARLINK-33658,2025-063X,2026-06-19T15:48:58.648896,15.34416699,.00008887,53.1591,295.8209,91.7458,268.3647,0,U,63384,999,7041,.77202174E-3,.25811E-3,0
STARLINK-33616,2025-063Y,2026-06-19T16:08:59.207136,15.30212827,.00011439,53.1592,309.4096,78.2161,281.8968,0,U,63385,999,7017,.93254928E-3,.27373E-3,0
STARLINK-33571,2025-063Z,2026-06-19T15:30:54.279648,15.34405764,.00009994,53.1605,307.8031,111.3901,248.7208,0,U,63386,999,7019,.58515568E-3,.19449E-3,0
STARLINK-33533,2025-063AA,2026-06-19T17:16:43.264416,15.34419493,.00010913,53.1593,295.4974,71.4881,288.6240,0,U,63387,999,7037,.81257782E-3,.27195E-3,0
STARLINK-33629,2025-063AB,2026-06-19T15:33:49.988736,15.34402982,.00013609,53.1602,295.7621,92.3852,267.7307,0,U,63388,999,7041,.65919486E-3,.21963E-3,0
STARLINK-33656,2025-063AC,2026-06-19T18:05:23.785728,15.31711316,.00015649,53.1621,297.8354,100.5656,259.5522,0,U,63389,999,7039,.54381544E-3,.16553E-3,0
STARLINK-33531,2025-065A,2026-06-19T12:20:49.461504,15.27589667,.00013755,43.0004,251.9537,271.4499,88.6195,0,U,63399,999,6841,.43624716E-3,.11765E-3,0
STARLINK-33652,2025-065B,2026-06-20T06:00:02.000160,15.27574538,.00015404,43.0019,247.4580,265.3970,325.9645,0,U,63400,999,586,.39569907E-3,.10641E-3,0
STARLINK-33707,2025-065C,2026-06-19T07:32:48.372864,15.27588955,.00010202,43.0021,253.0347,252.7088,107.3652,0,U,63401,999,6838,.51148223E-3,.13843E-3,0
STARLINK-33668,2025-065D,2026-06-20T05:56:53.827008,15.27593290,.00015909,42.9991,247.9960,275.5861,84.4809,0,U,63402,999,6852,.51758633E-3,.14014E-3,0
STARLINK-33676,2025-065E,2026-06-19T12:13:25.392288,15.27620601,.00016495,43.0007,251.9113,272.3721,87.6942,0,U,63403,999,6841,.70810557E-3,.19299E-3,0
STARLINK-33711,2025-065F,2026-06-20T06:31:50.667744,15.27586683,.00019319,43.0021,247.3206,281.1878,78.8756,0,U,63404,999,6853,.40629016E-3,.10937E-3,0
STARLINK-33708,2025-065G,2026-06-19T06:02:20.581440,15.27596586,.00006421,42.9980,253.4151,281.5319,78.5461,0,U,63405,999,6837,.45455392E-3,.12274E-3,0
STARLINK-33690,2025-065H,2026-06-20T04:50:58.871328,15.27590538,.00017496,43.0003,244.1916,263.5628,96.5024,0,U,63406,999,6856,.48088937E-3,.12999E-3,0
STARLINK-33694,2025-065J,2026-06-20T05:23:35.579904,15.27579116,.00015149,42.9976,247.8102,252.7220,107.3466,0,U,63407,999,6852,.50797765E-3,.13742E-3,0
STARLINK-33692,2025-065K,2026-06-20T06:25:48.161856,15.27590937,.00010285,43.0010,251.5954,227.8174,132.2590,0,U,63408,999,6848,.50181925E-3,.13577E-3,0
STARLINK-33693,2025-065L,2026-06-20T05:49:29.537472,15.27598369,.00018206,42.9995,247.9478,281.7093,78.3554,0,U,63409,999,6852,.65344202E-3,.17773E-3,0
STARLINK-33677,2025-065M,2026-06-19T12:22:40.266048,15.27594403,.00014836,42.9985,251.9482,272.4396,87.6285,0,U,63410,999,6841,.25388591E-3,.6734E-4,0
STARLINK-33647,2025-065N,2026-06-20T06:47:18.903552,15.27601462,.00009498,42.9997,255.1764,223.9072,136.1704,0,U,63411,999,6844,.41579152E-3,.11204E-3,0
STARLINK-33645,2025-065P,2026-06-19T12:10:51.347136,15.27588631,.00029298,42.9993,255.2834,269.5475,90.5041,0,U,63412,999,6837,.4344803E-3,.11717E-3,0
STARLINK-33670,2025-065Q,2026-06-19T12:17:07.340928,15.27572826,.00014584,42.9999,251.8893,269.1817,90.8868,0,U,63413,999,6841,.51916381E-3,.14048E-3,0
STARLINK-33644,2025-065R,2026-06-20T05:05:16.788768,15.27593119,.00017413,42.9990,248.5298,199.7442,160.3343,0,U,63414,999,6851,.54528838E-3,.14779E-3,0
STARLINK-33664,2025-065S,2026-06-20T05:43:55.941888,15.27595976,.00024391,42.9974,247.8762,283.3591,76.6989,0,U,63415,999,6852,.67496773E-3,.18368E-3,0
