STARLINK-33539          
1 63376U 25063P   26170.81608118  .00027299  00000+0  93009-3 0  9992
2 63376  53.1599 308.1511 0001079  86.3570 273.7554 15.30212707 70204
STARLINK-33634          
1 63377U 25063Q   26170.65705336  .00013382  00000+0  46320-3 0  9997
2 63377  53.1601 298.6567 0001293  98.4195 261.6952 15.30195513 70379
STARLINK-33640          
1 63378U 25063R   26170.72764372  .00023270  00000+0  79513-3 0  9998
2 63378  53.1601 298.3809 0001240  87.5754 272.5389 15.30207899 70385
STARLINK-33636          
1 63379U 25063S   26170.63226038  .00030165  00000+0  79239-3 0  9997
2 63379  53.1605 297.0933 0002361  32.6698 327.4453 15.38384263 70344
STARLINK-33653          
1 63380U 25063T   26170.73819423  .00017864  00000+0  61353-3 0  9995
2 63380  53.1606 298.4502 0000982  93.5034 266.6079 15.30214643 70334
STARLINK-33643          
1 63381U 25063U   26170.73291993  .00014317  00000+0  49454-3 0  9990
2 63381  53.1603 298.4126 0001283  97.0137 263.1010 15.30202645 70383
STARLINK-33748          
1 63383U 25063W   26170.80566129  .00014189  00000+0  49039-3 0  9992
2 63383  53.1605 308.8109 0001531  55.0404 305.0740 15.30190909 70241
STARLINK-33658          
1 63384U 25063X   26170.65901214  .00025811  00000+0  77202-3 0  9991
2 63384  53.1591 295.8209 0000888  91.7458 268.3647 15.34416699 70419
STARLINK-33616          
1 63385U 25063Y   26170.67290749  .00027373  00000+0  93255-3 0  9999
2 63385  53.1592 309.4096 0001143  78.2161 281.8968 15.30212827 70175
STARLINK-33571          
1 63386U 25063Z   26170.64646157  .00019449  00000+0  58516-3 0  9991
2 63386  53.1605 307.8031 0000999 111.3901 248.7208 15.34405764 70190
STARLINK-33533          
1 63387U 25063AA  26170.71994519  .00027195  00000+0  81258-3 0  9994
2 63387  53.1593 295.4974 0001091  71.4881 288.6240 15.34419493 70375
STARLINK-33629          
1 63388U 25063AB  26170.64849524  .00021963  00000+0  65919-3 0  9995
2 63388  53.1602 295.7621 0001360  92.3852 267.7307 15.34402982 70410
STARLINK-33656          
1 63389U 25063AC  26170.75374752  .00016553  00000+0  54382-3 0  9995
2 63389  53.1621 297.8354 0001564 100.5656 259.5522 15.31711316 70394
STARLINK-33531          
1 63399U 25065A   26170.51446136  .00011765  00000+0  43625-3 0  9996
2 63399  43.0004 251.9537 0001375 271.4499  88.6195 15.27589667 68419
STARLINK-33652          
1 63400U 25065B   26171.25002315  .00010641  00000+0  39570-3 0  9994
2 63400  43.0019 247.4580 0001540 265.3970 325.9645 15.27574538  5864
STARLINK-33707          
1 63401U 25065C   26170.31444876  .00013843  00000+0  51148-3 0  9995
2 63401  43.0021 253.0347 0001020 252.7088 107.3652 15.27588955 68389
STARLINK-33668          
1 63402U 25065D   26171.24784522  .00014014  00000+0  51759-3 0  9993
2 63402  42.9991 247.9960 0001590 275.5861  84.4809 15.27593290 68524
STARLINK-33676          
1 63403U 25065E   26170.50932167  .00019299  00000+0  70811-3 0  9992
2 63403  43.0007 251.9113 0001649 272.3721  87.6942 15.27620601 68413
STARLINK-33711          
1 63404U 25065F   26171.27211421  .00010937  00000+0  40629-3 0  9995
2 63404  43.0021 247.3206 0001931 281.1878  78.8756 15.27586683 68536
STARLINK-33708          
1 63405U 25065G   26170.25162710  .00012274  00000+0  45455-3 0  9997
2 63405  42.9980 253.4151 0000642 281.5319  78.5461 15.27596586 68373
STARLINK-33690          
1 63406U 25065H   26171.20207027  .00012999  00000+0  48089-3 0  9995
2 63406  43.0003 244.1916 0001749 263.5628  96.5024 15.27590538 68567
STARLINK-33694          
1 63407U 25065J   26171.22471736  .00013742  00000+0  50798-3 0  9995
2 63407  42.9976 247.8102 0001514 252.7220 107.3466 15.27579116 68526
STARLINK-33692          
1 63408U 25065K   26171.26791854  .00013577  00000+0  50182-3 0  9999
2 63408  43.0010 251.5954 0001028 227.8174 132.2590 15.27590937 68480
STARLINK-33693          
1 63409U 25065L   26171.24270298  .00017773  00000+0  65344-3 0  9990
2 63409  42.9995 247.9478 0001820 281.7093  78.3554 15.27598369 68522
STARLINK-33677          
1 63410U 25065M   26170.51574382  .00006734  00000+0  25389-3 0  9992
2 63410  42.9985 251.9482 0001483 272.4396  87.6285 15.27594403 68418
STARLINK-33647          
1 63411U 25065N   26171.28285768  .00011204  00000+0  41579-3 0  9992
2 63411  42.9997 255.1764 0000949 223.9072 136.1704 15.27601462 68442
STARLINK-33645          
1 63412U 25065P   26170.50753874  .00011717  00000+0  43448-3 0  9991
2 63412  42.9993 255.2834 0002929 269.5475  90.5041 15.27588631 68372
STARLINK-33670          
1 63413U 25065Q   26170.51189052  .00014048  00000+0  51916-3 0  9993
2 63413  42.9999 251.8893 0001458 269.1817  90.8868 15.27572826 68412
STARLINK-33644          
1 63414U 25065R   26171.21199987  .00014779  00000+0  54529-3 0  9994
2 63414  42.9990 248.5298 0001741 199.7442 160.3343 15.27593119 68513
STARLINK-33664          
1 63415U 25065S   26171.23884192  .00018368  00000+0  67497-3 0  9992
2 63415  42.9974 247.8762 0002439 283.3591  76.6989 15.27595976 68523
